[{"OBJECT_NAME":"AEROCUBE 6B","OBJECT_ID":"2014-033AN","EPOCH":"2026-03-09T10:13:48.857088","MEAN_MOTION":14.98232474,"ECCENTRICITY":0.00374529,"INCLINATION":97.7129,"RA_OF_ASC_NODE":236.1645,"ARG_OF_PERICENTER":343.23,"MEAN_ANOMALY":16.7681,"EPHEMERIS_TYPE":0,"CLASSIFICATION_TYPE":"U","NORAD_CAT_ID":40046,"ELEMENT_SET_NO":999,"REV_AT_EPOCH":63181,"BSTAR":0.00066368498,"MEAN_MOTION_DOT":7.941e-5,"MEAN_MOTION_DDOT":0},{"OBJECT_NAME":"STARLINK-5876","OBJECT_ID":"2023-058E","EPOCH":"2026-03-09T23:34:36.790464","MEAN_MOTION":15.05649465,"ECCENTRICITY":0.00025007,"INCLINATION":97.6044,"RA_OF_ASC_NODE":71.5527,"ARG_OF_PERICENTER":114.8065,"MEAN_ANOMALY":245.3422,"EPHEMERIS_TYPE":0,"CLASSIFICATION_TYPE":"U","NORAD_CAT_ID":56321,"ELEMENT_SET_NO":999,"REV_AT_EPOCH":15789,"BSTAR":-0.0038503464,"MEAN_MOTION_DOT":-0.00055192,"MEAN_MOTION_DDOT":0}]
