AEROCUBE 6B             
1 40046U 14033AN  26068.42625992  .00007941  00000+0  66368-3 0  9998
2 40046  97.7129 236.1645 0037452 343.2300  16.7681 14.98232474631816
STARLINK-5876           
1 56321U 23058E   26068.98237026 -.00055192  00000+0 -38503-2 0  9998
2 56321  97.6044  71.5527 0002501 114.8065 245.3422 15.05649465157896
